{
  "norad_id": 57519,
  "name": "HJ-2F",
  "history": [
    {
      "epoch": "2026-03-28T23:08:28.943232",
      "apogee_km": 507.7210189790303,
      "perigee_km": 497.128531737103,
      "latitude_deg": 84.57312618324849,
      "longitude_deg": 24.465492479968816,
      "semi_major_axis_km": 6880.561775358066,
      "eccentricity": 0.00076974,
      "inclination_deg": 97.3875,
      "raan_deg": 94.6414,
      "arg_perigee_deg": 335.731,
      "mean_anomaly_deg": 24.3563,
      "mean_motion_rev_day": 15.21132041
    },
    {
      "epoch": "2026-03-29T03:52:39.745632",
      "apogee_km": 507.69499268968593,
      "perigee_km": 497.12922148084635,
      "latitude_deg": -84.69816122389419,
      "longitude_deg": 43.41082847979851,
      "semi_major_axis_km": 6880.549107085266,
      "eccentricity": 0.0007678,
      "inclination_deg": 97.3875,
      "raan_deg": 94.8351,
      "arg_perigee_deg": 335.0278,
      "mean_anomaly_deg": 25.0585,
      "mean_motion_rev_day": 15.21136242
    }
  ]
}